{
    "links": {
        "self": "http://www.neowsapp.com/rest/v1/neo/3631991?api_key=iIulBulltgU6a56xZRHN4H3l9WmuAYTsLGpBGhQ2"
    },
    "id": "3631991",
    "neo_reference_id": "3631991",
    "name": "(2013 EQ41)",
    "designation": "2013 EQ41",
    "nasa_jpl_url": "http://ssd.jpl.nasa.gov/sbdb.cgi?sstr=3631991",
    "absolute_magnitude_h": 25.5,
    "estimated_diameter": {
        "kilometers": {
            "estimated_diameter_min": 0.0211132445,
            "estimated_diameter_max": 0.0472106499
        },
        "meters": {
            "estimated_diameter_min": 21.113244479,
            "estimated_diameter_max": 47.2106498806
        },
        "miles": {
            "estimated_diameter_min": 0.0131191578,
            "estimated_diameter_max": 0.0293353287
        },
        "feet": {
            "estimated_diameter_min": 69.2691770164,
            "estimated_diameter_max": 154.8905885541
        }
    },
    "is_potentially_hazardous_asteroid": false,
    "close_approach_data": [
        {
            "close_approach_date": "1963-03-29",
            "close_approach_date_full": "1963-Mar-29 06:37",
            "epoch_date_close_approach": -213384180000,
            "relative_velocity": {
                "kilometers_per_second": "15.8132438114",
                "kilometers_per_hour": "56927.6777210584",
                "miles_per_hour": "35372.6450817321"
            },
            "miss_distance": {
                "astronomical": "0.2670461132",
                "lunar": "103.8809380348",
                "kilometers": "39949529.726498884",
                "miles": "24823486.6916732392"
            },
            "orbiting_body": "Earth"
        },
        {
            "close_approach_date": "1965-07-23",
            "close_approach_date_full": "1965-Jul-23 00:39",
            "epoch_date_close_approach": -140224860000,
            "relative_velocity": {
                "kilometers_per_second": "11.3345162777",
                "kilometers_per_hour": "40804.2585998723",
                "miles_per_hour": "25354.1794616818"
            },
            "miss_distance": {
                "astronomical": "0.088517553",
                "lunar": "34.433328117",
                "kilometers": "13242037.38641211",
                "miles": "8228220.484262718"
            },
            "orbiting_body": "Mars"
        },
        {
            "close_approach_date": "2010-11-28",
            "close_approach_date_full": "2010-Nov-28 23:12",
            "epoch_date_close_approach": 1290985920000,
            "relative_velocity": {
                "kilometers_per_second": "16.1605350559",
                "kilometers_per_hour": "58177.9262012728",
                "miles_per_hour": "36149.5008665631"
            },
            "miss_distance": {
                "astronomical": "0.2769383177",
                "lunar": "107.7290055853",
                "kilometers": "41429382.449303299",
                "miles": "25743024.5340875662"
            },
            "orbiting_body": "Earth"
        },
        {
            "close_approach_date": "2013-03-03",
            "close_approach_date_full": "2013-Mar-03 09:59",
            "epoch_date_close_approach": 1362304740000,
            "relative_velocity": {
                "kilometers_per_second": "7.6823209029",
                "kilometers_per_hour": "27656.3552504163",
                "miles_per_hour": "17184.5836276823"
            },
            "miss_distance": {
                "astronomical": "0.0126705158",
                "lunar": "4.9288306462",
                "kilometers": "1895482.175481346",
                "miles": "1177798.0086247348"
            },
            "orbiting_body": "Earth"
        },
        {
            "close_approach_date": "2023-11-17",
            "close_approach_date_full": "2023-Nov-17 18:57",
            "epoch_date_close_approach": 1700247420000,
            "relative_velocity": {
                "kilometers_per_second": "13.0812142221",
                "kilometers_per_hour": "47092.3711996669",
                "miles_per_hour": "29261.3680934819"
            },
            "miss_distance": {
                "astronomical": "0.0247779531",
                "lunar": "9.6386237559",
                "kilometers": "3706729.006719897",
                "miles": "2303254.6014406986"
            },
            "orbiting_body": "Mars"
        }
    ],
    "orbital_data": {
        "orbit_id": "9",
        "orbit_determination_date": "2017-04-06 08:46:30",
        "first_observation_date": "2013-03-11",
        "last_observation_date": "2013-03-23",
        "data_arc_in_days": 12,
        "observations_used": 38,
        "orbit_uncertainty": "7",
        "minimum_orbit_intersection": ".00245967",
        "jupiter_tisserand_invariant": "4.196",
        "epoch_osculation": "2459000.5",
        "eccentricity": ".4261778493866084",
        "semi_major_axis": "1.6351239931577",
        "inclination": ".6702201034437003",
        "ascending_node_longitude": "82.46776819541354",
        "orbital_period": "763.7029421961682",
        "perihelion_distance": ".9382703662733078",
        "perihelion_argument": "44.28224922368095",
        "aphelion_distance": "2.331977620042092",
        "perihelion_time": "2459380.640091632393",
        "mean_anomaly": "180.8067228415763",
        "mean_motion": ".4713874729417092",
        "equinox": "J2000",
        "orbit_class": {
            "orbit_class_type": "APO",
            "orbit_class_description": "Near-Earth asteroid orbits which cross the Earth’s orbit similar to that of 1862 Apollo",
            "orbit_class_range": "a (semi-major axis) > 1.0 AU; q (perihelion) < 1.017 AU"
        }
    },
    "is_sentry_object": false
}